{"type": "FeatureCollection", "features": [{"type": "Feature", "properties": {"NUTS_ID": "RO122", "LEVL_CODE": 3, "CNTR_CODE": "RO", "NAME_LATN": "Bra\u015fov", "NUTS_NAME": "Bra\u015fov", "MOUNT_TYPE": 3, "URBN_TYPE": 2, "COAST_TYPE": 3, "NAME_ENGL": "Romania", "NAME_FREN": "Roumanie", "ISO3_CODE": "ROU", "SVRG_UN": "UN Member State", "CAPT": "Bucharest", "EU_STAT": "T", "EFTA_STAT": "F", "CC_STAT": "F", "NAME_GERM": "Rum\u00e4nien"}, "geometry": {"type": "MultiPolygon", "coordinates": [[[[25.451241500000037, 46.10409449900004], [25.548897539000052, 46.03246240300007], [25.594810976000076, 45.82365653700003], [25.89485028000007, 45.71003312000005], [26.080149090000077, 45.56810210400005], [26.093334500000026, 45.51630599900005], [26.072718500000065, 45.50578799900006], [25.452539, 45.44134199900003], [25.321577500000046, 45.38108899900004], [25.106836761000068, 45.576393963000044], [24.684925500000077, 45.604110999000056], [24.658081465000066, 45.782068036000055], [24.735648622000042, 45.85077385400007], [24.72616689800003, 45.93582307600008], [24.946548500000063, 46.07910899900003], [25.173251, 46.16551949900003], [25.451241500000037, 46.10409449900004]]]]}}, {"type": "Feature", "properties": {"NUTS_ID": "RO123", "LEVL_CODE": 3, "CNTR_CODE": "RO", "NAME_LATN": "Covasna", "NUTS_NAME": "Covasna", "MOUNT_TYPE": 3, "URBN_TYPE": 3, "COAST_TYPE": 3, "NAME_ENGL": "Romania", "NAME_FREN": "Roumanie", "ISO3_CODE": "ROU", "SVRG_UN": "UN Member State", "CAPT": "Bucharest", "EU_STAT": "T", "EFTA_STAT": "F", "CC_STAT": "F", "NAME_GERM": "Rum\u00e4nien"}, "geometry": {"type": "MultiPolygon", "coordinates": [[[[26.263439, 46.246338499000046], [26.439984500000037, 46.038876499000025], [26.39209450000004, 45.80238949900007], [26.299790581000025, 45.61845819100006], [26.093334500000026, 45.51630599900005], [26.080149090000077, 45.56810210400005], [25.89485028000007, 45.71003312000005], [25.594810976000076, 45.82365653700003], [25.548897539000052, 46.03246240300007], [25.451241500000037, 46.10409449900004], [25.698233927000047, 46.26294476800007], [25.89485028000007, 46.12294604500005], [26.160375026000054, 46.169650130000036], [26.263439, 46.246338499000046]]]]}}, {"type": "Feature", "properties": {"NUTS_ID": "RO124", "LEVL_CODE": 3, "CNTR_CODE": "RO", "NAME_LATN": "Harghita", "NUTS_NAME": "Harghita", "MOUNT_TYPE": 3, "URBN_TYPE": 3, "COAST_TYPE": 3, "NAME_ENGL": "Romania", "NAME_FREN": "Roumanie", "ISO3_CODE": "ROU", "SVRG_UN": "UN Member State", "CAPT": "Bucharest", "EU_STAT": "T", "EFTA_STAT": "F", "CC_STAT": "F", "NAME_GERM": "Rum\u00e4nien"}, "geometry": {"type": "MultiPolygon", "coordinates": [[[[25.661582500000065, 47.091646499000035], [25.771440079000058, 46.99028906400008], [25.82775655200004, 46.71813537200006], [25.975159500000075, 46.69731249900008], [26.028323999000065, 46.42818862100006], [26.24231982200007, 46.32388827800003], [26.263439, 46.246338499000046], [26.160375026000054, 46.169650130000036], [25.89485028000007, 46.12294604500005], [25.698233927000047, 46.26294476800007], [25.451241500000037, 46.10409449900004], [25.173251, 46.16551949900003], [24.940173499000025, 46.25795371500004], [24.874719071000072, 46.347688058000074], [25.031772793000073, 46.53289859700004], [25.272487824000052, 46.69250418400003], [25.246710500000063, 47.09791899900006], [25.396299527000053, 47.17304718100007], [25.661582500000065, 47.091646499000035]]]]}}, {"type": "Feature", "properties": {"NUTS_ID": "RO125", "LEVL_CODE": 3, "CNTR_CODE": "RO", "NAME_LATN": "Mure\u015f", "NUTS_NAME": "Mure\u015f", "MOUNT_TYPE": 4, "URBN_TYPE": 3, "COAST_TYPE": 3, "NAME_ENGL": "Romania", "NAME_FREN": "Roumanie", "ISO3_CODE": "ROU", "SVRG_UN": "UN Member State", "CAPT": "Bucharest", "EU_STAT": "T", "EFTA_STAT": "F", "CC_STAT": "F", "NAME_GERM": "Rum\u00e4nien"}, "geometry": {"type": "MultiPolygon", "coordinates": [[[[25.246710500000063, 47.09791899900006], [25.272487824000052, 46.69250418400003], [25.031772793000073, 46.53289859700004], [24.874719071000072, 46.347688058000074], [24.940173499000025, 46.25795371500004], [25.173251, 46.16551949900003], [24.946548500000063, 46.07910899900003], [24.700735146000056, 46.09560743900005], [24.638695486000074, 46.27276136100005], [24.23131150000006, 46.25963999900006], [23.985275, 46.43091799900003], [24.089070563000064, 46.737823330000026], [24.179575500000055, 46.804696499000045], [24.40102433800007, 46.76217447500005], [24.571143106000022, 46.921035747000076], [24.709029608000037, 46.92625561700004], [24.860746979000055, 47.08754303900008], [25.063383, 47.13653849900004], [25.246710500000063, 47.09791899900006]]]]}}, {"type": "Feature", "properties": {"NUTS_ID": "RO126", "LEVL_CODE": 3, "CNTR_CODE": "RO", "NAME_LATN": "Sibiu", "NUTS_NAME": "Sibiu", "MOUNT_TYPE": 4, "URBN_TYPE": 2, "COAST_TYPE": 3, "NAME_ENGL": "Romania", "NAME_FREN": "Roumanie", "ISO3_CODE": "ROU", "SVRG_UN": "UN Member State", "CAPT": "Bucharest", "EU_STAT": "T", "EFTA_STAT": "F", "CC_STAT": "F", "NAME_GERM": "Rum\u00e4nien"}, "geometry": {"type": "MultiPolygon", "coordinates": [[[[24.946548500000063, 46.07910899900003], [24.72616689800003, 45.93582307600008], [24.735648622000042, 45.85077385400007], [24.658081465000066, 45.782068036000055], [24.684925500000077, 45.604110999000056], [24.523132, 45.58056399900005], [23.703613, 45.49677199900003], [23.630834623000055, 45.55285864200005], [23.641780564000044, 45.787672358000066], [23.884842408000054, 46.02115342800005], [24.176445519000026, 46.16136711400003], [24.23131150000006, 46.25963999900006], [24.638695486000074, 46.27276136100005], [24.700735146000056, 46.09560743900005], [24.946548500000063, 46.07910899900003]]]]}}, {"type": "Feature", "properties": {"NUTS_ID": "RO211", "LEVL_CODE": 3, "CNTR_CODE": "RO", "NAME_LATN": "Bac\u0103u", "NUTS_NAME": "Bac\u0103u", "MOUNT_TYPE": 2, "URBN_TYPE": 3, "COAST_TYPE": 3, "NAME_ENGL": "Romania", "NAME_FREN": "Roumanie", "ISO3_CODE": "ROU", "SVRG_UN": "UN Member State", "CAPT": "Bucharest", "EU_STAT": "T", "EFTA_STAT": "F", "CC_STAT": "F", "NAME_GERM": "Rum\u00e4nien"}, "geometry": {"type": "MultiPolygon", "coordinates": [[[[27.206219, 46.769848499000034], [27.30397954500006, 46.69778627800008], [27.471594630000027, 46.25519658800005], [27.492818500000055, 46.15921299900003], [27.282604289000062, 46.19251370400008], [26.928487016000076, 46.077307888000064], [26.439984500000037, 46.038876499000025], [26.263439, 46.246338499000046], [26.24231982200007, 46.32388827800003], [26.028323999000065, 46.42818862100006], [25.975159500000075, 46.69731249900008], [26.14612664300006, 46.65092002800003], [26.543788217000042, 46.68384582600004], [26.884778109000024, 46.79169594100006], [27.206219, 46.769848499000034]]]]}}, {"type": "Feature", "properties": {"NUTS_ID": "RO212", "LEVL_CODE": 3, "CNTR_CODE": "RO", "NAME_LATN": "Boto\u015fani", "NUTS_NAME": "Boto\u015fani", "MOUNT_TYPE": 4, "URBN_TYPE": 3, "COAST_TYPE": 3, "NAME_ENGL": "Romania", "NAME_FREN": "Roumanie", "ISO3_CODE": "ROU", "SVRG_UN": "UN Member State", "CAPT": "Bucharest", "EU_STAT": "T", "EFTA_STAT": "F", "CC_STAT": "F", "NAME_GERM": "Rum\u00e4nien"}, "geometry": {"type": "MultiPolygon", "coordinates": [[[[27.168729927000072, 47.95006217200006], [27.316038675000073, 47.64265761200005], [27.391166500000054, 47.58939749900003], [27.114396, 47.53077488200006], [27.04750227200003, 47.45696588000004], [26.700572, 47.471711999000036], [26.594454565000035, 47.48189632000003], [26.543667741000036, 47.64265761200005], [26.098827500000027, 47.978795999000056], [26.20568912400006, 48.01802960400005], [26.350629058000038, 48.18417125500008], [26.63056, 48.259749999000064], [26.806723272000056, 48.24504224900005], [27.019341094000026, 48.12084045300003], [27.168729927000072, 47.95006217200006]]]]}}, {"type": "Feature", "properties": {"NUTS_ID": "RO213", "LEVL_CODE": 3, "CNTR_CODE": "RO", "NAME_LATN": "Ia\u015fi", "NUTS_NAME": "Ia\u015fi", "MOUNT_TYPE": 4, "URBN_TYPE": 2, "COAST_TYPE": 3, "NAME_ENGL": "Romania", "NAME_FREN": "Roumanie", "ISO3_CODE": "ROU", "SVRG_UN": "UN Member State", "CAPT": "Bucharest", "EU_STAT": "T", "EFTA_STAT": "F", "CC_STAT": "F", "NAME_GERM": "Rum\u00e4nien"}, "geometry": {"type": "MultiPolygon", "coordinates": [[[[28.11380550000007, 46.838410999000075], [27.90086719100003, 46.83113739000004], [27.646914981000066, 46.96454005100003], [27.516335481000056, 46.87978802500004], [27.202391, 46.88240999900006], [27.16935902700004, 46.942500661000054], [27.217075412000042, 47.016973077000046], [27.16835913500006, 47.066290878000075], [26.84230993700004, 47.04262963600007], [26.64633751300005, 47.10764459100005], [26.507789500000058, 47.27169349900004], [26.517998026000043, 47.368608065000046], [26.65433328200004, 47.36785235900004], [26.700572, 47.471711999000036], [27.04750227200003, 47.45696588000004], [27.114396, 47.53077488200006], [27.391166500000054, 47.58939749900003], [27.84712419400006, 47.11680918900004], [28.077996668000026, 46.97623346600005], [28.11380550000007, 46.838410999000075]]]]}}, {"type": "Feature", "properties": {"NUTS_ID": "RO214", "LEVL_CODE": 3, "CNTR_CODE": "RO", "NAME_LATN": "Neam\u0163", "NUTS_NAME": "Neam\u0163", "MOUNT_TYPE": 2, "URBN_TYPE": 3, "COAST_TYPE": 3, "NAME_ENGL": "Romania", "NAME_FREN": "Roumanie", "ISO3_CODE": "ROU", "SVRG_UN": "UN Member State", "CAPT": "Bucharest", "EU_STAT": "T", "EFTA_STAT": "F", "CC_STAT": "F", "NAME_GERM": "Rum\u00e4nien"}, "geometry": {"type": "MultiPolygon", "coordinates": [[[[26.507789500000058, 47.27169349900004], [26.64633751300005, 47.10764459100005], [26.84230993700004, 47.04262963600007], [27.16835913500006, 47.066290878000075], [27.217075412000042, 47.016973077000046], [27.16935902700004, 46.942500661000054], [27.202391, 46.88240999900006], [27.206219, 46.769848499000034], [26.884778109000024, 46.79169594100006], [26.543788217000042, 46.68384582600004], [26.14612664300006, 46.65092002800003], [25.975159500000075, 46.69731249900008], [25.82775655200004, 46.71813537200006], [25.771440079000058, 46.99028906400008], [25.661582500000065, 47.091646499000035], [25.823953413000027, 47.281999693000046], [25.89485028000007, 47.265917787000035], [26.396413849000055, 47.32762030100008], [26.507789500000058, 47.27169349900004]]]]}}, {"type": "Feature", "properties": {"NUTS_ID": "RO215", "LEVL_CODE": 3, "CNTR_CODE": "RO", "NAME_LATN": "Suceava", "NUTS_NAME": "Suceava", "MOUNT_TYPE": 2, "URBN_TYPE": 3, "COAST_TYPE": 3, "NAME_ENGL": "Romania", "NAME_FREN": "Roumanie", "ISO3_CODE": "ROU", "SVRG_UN": "UN Member State", "CAPT": "Bucharest", "EU_STAT": "T", "EFTA_STAT": "F", "CC_STAT": "F", "NAME_GERM": "Rum\u00e4nien"}, "geometry": {"type": "MultiPolygon", "coordinates": [[[[26.700572, 47.471711999000036], [26.65433328200004, 47.36785235900004], [26.517998026000043, 47.368608065000046], [26.507789500000058, 47.27169349900004], [26.396413849000055, 47.32762030100008], [25.89485028000007, 47.265917787000035], [25.823953413000027, 47.281999693000046], [25.661582500000065, 47.091646499000035], [25.396299527000053, 47.17304718100007], [25.246710500000063, 47.09791899900006], [25.063383, 47.13653849900004], [25.075296552000054, 47.51239990400006], [24.960837500000025, 47.596850999000026], [25.02210869000004, 47.66731240200005], [24.947100500000033, 47.72912399900008], [25.089718422000033, 47.74828608900003], [25.28850595800003, 47.906777516000034], [25.89485028000007, 47.962098430000026], [26.098827500000027, 47.978795999000056], [26.543667741000036, 47.64265761200005], [26.594454565000035, 47.48189632000003], [26.700572, 47.471711999000036]]]]}}, {"type": "Feature", "properties": {"NUTS_ID": "RO216", "LEVL_CODE": 3, "CNTR_CODE": "RO", "NAME_LATN": "Vaslui", "NUTS_NAME": "Vaslui", "MOUNT_TYPE": 4, "URBN_TYPE": 3, "COAST_TYPE": 3, "NAME_ENGL": "Romania", "NAME_FREN": "Roumanie", "ISO3_CODE": "ROU", "SVRG_UN": "UN Member State", "CAPT": "Bucharest", "EU_STAT": "T", "EFTA_STAT": "F", "CC_STAT": "F", "NAME_GERM": "Rum\u00e4nien"}, "geometry": {"type": "MultiPolygon", "coordinates": [[[[28.11380550000007, 46.838410999000075], [28.239720654000052, 46.61637494900003], [28.241329998000026, 46.42776222500004], [28.143893082000034, 46.25519658800005], [28.115802, 46.10782699900005], [27.62016581000006, 46.13711748000003], [27.564994511000066, 46.02046342400007], [27.503053, 46.139620999000044], [27.492818500000055, 46.15921299900003], [27.471594630000027, 46.25519658800005], [27.30397954500006, 46.69778627800008], [27.206219, 46.769848499000034], [27.202391, 46.88240999900006], [27.516335481000056, 46.87978802500004], [27.646914981000066, 46.96454005100003], [27.90086719100003, 46.83113739000004], [28.11380550000007, 46.838410999000075]]]]}}, {"type": "Feature", "properties": {"NUTS_ID": "RO221", "LEVL_CODE": 3, "CNTR_CODE": "RO", "NAME_LATN": "Br\u0103ila", "NUTS_NAME": "Br\u0103ila", "MOUNT_TYPE": 4, "URBN_TYPE": 2, "COAST_TYPE": 3, "NAME_ENGL": "Romania", "NAME_FREN": "Roumanie", "ISO3_CODE": "ROU", "SVRG_UN": "UN Member State", "CAPT": "Bucharest", "EU_STAT": "T", "EFTA_STAT": "F", "CC_STAT": "F", "NAME_GERM": "Rum\u00e4nien"}, "geometry": {"type": "MultiPolygon", "coordinates": [[[[28.03051750000003, 45.40432799900003], [28.01193075200007, 45.29896204100004], [28.171919826000078, 45.137577821000036], [28.098515467000027, 44.85355745700008], [28.07410850000008, 44.80388699900004], [27.881007, 44.76307649900008], [27.814788532000023, 44.803513070000065], [27.203458500000067, 44.78707399900003], [27.228902590000075, 44.85355745700008], [27.262848938000047, 44.98703528100003], [27.089238461000036, 45.16683064000006], [27.167976547000023, 45.23237849600008], [27.31237738200008, 45.22770535600006], [27.434726500000068, 45.39470199900006], [27.558515500000055, 45.48837549900003], [28.03051750000003, 45.40432799900003]]]]}}, {"type": "Feature", "properties": {"NUTS_ID": "RO222", "LEVL_CODE": 3, "CNTR_CODE": "RO", "NAME_LATN": "Buz\u0103u", "NUTS_NAME": "Buz\u0103u", "MOUNT_TYPE": 4, "URBN_TYPE": 3, "COAST_TYPE": 3, "NAME_ENGL": "Romania", "NAME_FREN": "Roumanie", "ISO3_CODE": "ROU", "SVRG_UN": "UN Member State", "CAPT": "Bucharest", "EU_STAT": "T", "EFTA_STAT": "F", "CC_STAT": "F", "NAME_GERM": "Rum\u00e4nien"}, "geometry": {"type": "MultiPolygon", "coordinates": [[[[27.434726500000068, 45.39470199900006], [27.31237738200008, 45.22770535600006], [27.167976547000023, 45.23237849600008], [27.089238461000036, 45.16683064000006], [27.262848938000047, 44.98703528100003], [27.228902590000075, 44.85355745700008], [27.203458500000067, 44.78707399900003], [26.605551500000047, 44.85699399900005], [26.450381416000027, 45.17427579200006], [26.25564312000006, 45.22750664800003], [26.072718500000065, 45.50578799900006], [26.093334500000026, 45.51630599900005], [26.299790581000025, 45.61845819100006], [26.39209450000004, 45.80238949900007], [26.528015338000046, 45.65356503600003], [26.781589798000027, 45.538393248000034], [27.434726500000068, 45.39470199900006]]]]}}, {"type": "Feature", "properties": {"NUTS_ID": "RO223", "LEVL_CODE": 3, "CNTR_CODE": "RO", "NAME_LATN": "Constan\u0163a", "NUTS_NAME": "Constan\u0163a", "MOUNT_TYPE": 4, "URBN_TYPE": 2, "COAST_TYPE": 1, "NAME_ENGL": "Romania", "NAME_FREN": "Roumanie", "ISO3_CODE": "ROU", "SVRG_UN": "UN Member State", "CAPT": "Bucharest", "EU_STAT": "T", "EFTA_STAT": "F", "CC_STAT": "F", "NAME_GERM": "Rum\u00e4nien"}, "geometry": {"type": "MultiPolygon", "coordinates": [[[[28.994085, 44.67962549900005], [28.644133270000054, 44.30977808500006], [28.656857820000027, 43.987710020000065], [28.578884, 43.73873899900008], [28.22233914800006, 43.76519221400008], [28.01229807800007, 43.84371279800007], [27.920156532000078, 43.98938564700006], [27.69541, 43.98734299900008], [27.394570180000073, 44.02226028600006], [27.271340500000065, 44.12633549900005], [27.923001058000068, 44.25807146900007], [28.017374, 44.34024899900004], [28.09116573600005, 44.45573408900003], [27.881007, 44.76307649900008], [28.07410850000008, 44.80388699900004], [28.49736867100006, 44.65021809900003], [28.994085, 44.67962549900005]]]]}}, {"type": "Feature", "properties": {"NUTS_ID": "RO224", "LEVL_CODE": 3, "CNTR_CODE": "RO", "NAME_LATN": "Gala\u0163i", "NUTS_NAME": "Gala\u0163i", "MOUNT_TYPE": 4, "URBN_TYPE": 2, "COAST_TYPE": 3, "NAME_ENGL": "Romania", "NAME_FREN": "Roumanie", "ISO3_CODE": "ROU", "SVRG_UN": "UN Member State", "CAPT": "Bucharest", "EU_STAT": "T", "EFTA_STAT": "F", "CC_STAT": "F", "NAME_GERM": "Rum\u00e4nien"}, "geometry": {"type": "MultiPolygon", "coordinates": [[[[28.115802, 46.10782699900005], [28.164582877000043, 45.68663931200007], [28.112115147000054, 45.596532006000075], [28.21136, 45.46727999900003], [28.03051750000003, 45.40432799900003], [27.558515500000055, 45.48837549900003], [27.24079047600003, 45.99187306700003], [27.290641201000028, 46.069016744000066], [27.503053, 46.139620999000044], [27.564994511000066, 46.02046342400007], [27.62016581000006, 46.13711748000003], [28.115802, 46.10782699900005]]]]}}, {"type": "Feature", "properties": {"NUTS_ID": "RO225", "LEVL_CODE": 3, "CNTR_CODE": "RO", "NAME_LATN": "Tulcea", "NUTS_NAME": "Tulcea", "MOUNT_TYPE": 4, "URBN_TYPE": 3, "COAST_TYPE": 1, "NAME_ENGL": "Romania", "NAME_FREN": "Roumanie", "ISO3_CODE": "ROU", "SVRG_UN": "UN Member State", "CAPT": "Bucharest", "EU_STAT": "T", "EFTA_STAT": "F", "CC_STAT": "F", "NAME_GERM": "Rum\u00e4nien"}, "geometry": {"type": "MultiPolygon", "coordinates": [[[[29.679639500000064, 45.21183799900007], [29.61044030000005, 44.85355745700008], [29.169947364000052, 44.77643092500006], [28.994085, 44.67962549900005], [28.49736867100006, 44.65021809900003], [28.07410850000008, 44.80388699900004], [28.098515467000027, 44.85355745700008], [28.171919826000078, 45.137577821000036], [28.01193075200007, 45.29896204100004], [28.03051750000003, 45.40432799900003], [28.21136, 45.46727999900003], [28.409533473000067, 45.30886852200007], [28.747377388000075, 45.24904783000005], [29.433194737000065, 45.42780738700003], [29.614706787000046, 45.34808444600003], [29.679639500000064, 45.21183799900007]]]]}}, {"type": "Feature", "properties": {"NUTS_ID": "RO226", "LEVL_CODE": 3, "CNTR_CODE": "RO", "NAME_LATN": "Vrancea", "NUTS_NAME": "Vrancea", "MOUNT_TYPE": 2, "URBN_TYPE": 3, "COAST_TYPE": 3, "NAME_ENGL": "Romania", "NAME_FREN": "Roumanie", "ISO3_CODE": "ROU", "SVRG_UN": "UN Member State", "CAPT": "Bucharest", "EU_STAT": "T", "EFTA_STAT": "F", "CC_STAT": "F", "NAME_GERM": "Rum\u00e4nien"}, "geometry": {"type": "MultiPolygon", "coordinates": [[[[27.492818500000055, 46.15921299900003], [27.503053, 46.139620999000044], [27.290641201000028, 46.069016744000066], [27.24079047600003, 45.99187306700003], [27.558515500000055, 45.48837549900003], [27.434726500000068, 45.39470199900006], [26.781589798000027, 45.538393248000034], [26.528015338000046, 45.65356503600003], [26.39209450000004, 45.80238949900007], [26.439984500000037, 46.038876499000025], [26.928487016000076, 46.077307888000064], [27.282604289000062, 46.19251370400008], [27.492818500000055, 46.15921299900003]]]]}}, {"type": "Feature", "properties": {"NUTS_ID": "RO311", "LEVL_CODE": 3, "CNTR_CODE": "RO", "NAME_LATN": "Arge\u015f", "NUTS_NAME": "Arge\u015f", "MOUNT_TYPE": 4, "URBN_TYPE": 3, "COAST_TYPE": 3, "NAME_ENGL": "Romania", "NAME_FREN": "Roumanie", "ISO3_CODE": "ROU", "SVRG_UN": "UN Member State", "CAPT": "Bucharest", "EU_STAT": "T", "EFTA_STAT": "F", "CC_STAT": "F", "NAME_GERM": "Rum\u00e4nien"}, "geometry": {"type": "MultiPolygon", "coordinates": [[[[25.106836761000068, 45.576393963000044], [25.321577500000046, 45.38108899900004], [25.265395480000052, 45.20753707800003], [25.166484291000074, 45.15874605000005], [25.192689811000037, 44.88632295000008], [25.267385362000027, 44.480756006000036], [25.234749500000078, 44.424251999000035], [24.88401950000008, 44.38263649900006], [24.764122446000044, 44.41308950400003], [24.678971854000054, 44.72216264200006], [24.53711545400006, 44.84520676000005], [24.438121, 44.845375499000056], [24.471694369000033, 44.88632295000008], [24.523132, 45.58056399900005], [24.684925500000077, 45.604110999000056], [25.106836761000068, 45.576393963000044]]]]}}, {"type": "Feature", "properties": {"NUTS_ID": "RO312", "LEVL_CODE": 3, "CNTR_CODE": "RO", "NAME_LATN": "C\u0103l\u0103ra\u015fi", "NUTS_NAME": "C\u0103l\u0103ra\u015fi", "MOUNT_TYPE": 4, "URBN_TYPE": 3, "COAST_TYPE": 3, "NAME_ENGL": "Romania", "NAME_FREN": "Roumanie", "ISO3_CODE": "ROU", "SVRG_UN": "UN Member State", "CAPT": "Bucharest", "EU_STAT": "T", "EFTA_STAT": "F", "CC_STAT": "F", "NAME_GERM": "Rum\u00e4nien"}, "geometry": {"type": "MultiPolygon", "coordinates": [[[[28.017374, 44.34024899900004], [27.923001058000068, 44.25807146900007], [27.271340500000065, 44.12633549900005], [26.949046874000032, 44.13830561000003], [26.381823, 44.03861199900007], [26.40693247400003, 44.19332599000006], [26.259956500000044, 44.29498599900006], [26.41606050000007, 44.52168299900006], [26.678067818000045, 44.55969739600005], [27.22102835000004, 44.48696871100003], [27.55364707700005, 44.508616345000064], [27.782823110000038, 44.35293389200007], [28.017374, 44.34024899900004]]]]}}, {"type": "Feature", "properties": {"NUTS_ID": "RO313", "LEVL_CODE": 3, "CNTR_CODE": "RO", "NAME_LATN": "D\u00e2mbovi\u0163a", "NUTS_NAME": "D\u00e2mbovi\u0163a", "MOUNT_TYPE": 4, "URBN_TYPE": 3, "COAST_TYPE": 3, "NAME_ENGL": "Romania", "NAME_FREN": "Roumanie", "ISO3_CODE": "ROU", "SVRG_UN": "UN Member State", "CAPT": "Bucharest", "EU_STAT": "T", "EFTA_STAT": "F", "CC_STAT": "F", "NAME_GERM": "Rum\u00e4nien"}, "geometry": {"type": "MultiPolygon", "coordinates": [[[[25.970744, 44.71040849900004], [25.89485028000007, 44.536879955000074], [25.576221444000055, 44.54119252700008], [25.480489, 44.45199799900007], [25.395565789000045, 44.50801192200004], [25.289145225000027, 44.42115405700008], [25.234749500000078, 44.424251999000035], [25.267385362000027, 44.480756006000036], [25.192689811000037, 44.88632295000008], [25.166484291000074, 45.15874605000005], [25.265395480000052, 45.20753707800003], [25.321577500000046, 45.38108899900004], [25.452539, 45.44134199900003], [25.538431322000065, 45.20259528500003], [25.810689198000034, 44.88632295000008], [25.812555299000053, 44.836065602000076], [25.89485028000007, 44.801063028000044], [25.970744, 44.71040849900004]]]]}}, {"type": "Feature", "properties": {"NUTS_ID": "RO314", "LEVL_CODE": 3, "CNTR_CODE": "RO", "NAME_LATN": "Giurgiu", "NUTS_NAME": "Giurgiu", "MOUNT_TYPE": 4, "URBN_TYPE": 3, "COAST_TYPE": 3, "NAME_ENGL": "Romania", "NAME_FREN": "Roumanie", "ISO3_CODE": "ROU", "SVRG_UN": "UN Member State", "CAPT": "Bucharest", "EU_STAT": "T", "EFTA_STAT": "F", "CC_STAT": "F", "NAME_GERM": "Rum\u00e4nien"}, "geometry": {"type": "MultiPolygon", "coordinates": [[[[25.89485028000007, 44.536879955000074], [25.919375871000057, 44.33829186000003], [26.115401657000064, 44.25931267200008], [26.259956500000044, 44.29498599900006], [26.40693247400003, 44.19332599000006], [26.381823, 44.03861199900007], [26.358182, 44.03716049900004], [26.118640674000062, 43.96671281300007], [25.89485028000007, 43.80318397800005], [25.672201, 43.68814849900008], [25.602742555000077, 44.004129556000066], [25.68408845500005, 44.24808861500003], [25.487450484000078, 44.33576237400007], [25.480489, 44.45199799900007], [25.576221444000055, 44.54119252700008], [25.89485028000007, 44.536879955000074]]]]}}, {"type": "Feature", "properties": {"NUTS_ID": "RO315", "LEVL_CODE": 3, "CNTR_CODE": "RO", "NAME_LATN": "Ialomi\u0163a", "NUTS_NAME": "Ialomi\u0163a", "MOUNT_TYPE": 4, "URBN_TYPE": 3, "COAST_TYPE": 3, "NAME_ENGL": "Romania", "NAME_FREN": "Roumanie", "ISO3_CODE": "ROU", "SVRG_UN": "UN Member State", "CAPT": "Bucharest", "EU_STAT": "T", "EFTA_STAT": "F", "CC_STAT": "F", "NAME_GERM": "Rum\u00e4nien"}, "geometry": {"type": "MultiPolygon", "coordinates": [[[[27.203458500000067, 44.78707399900003], [27.814788532000023, 44.803513070000065], [27.881007, 44.76307649900008], [28.09116573600005, 44.45573408900003], [28.017374, 44.34024899900004], [27.782823110000038, 44.35293389200007], [27.55364707700005, 44.508616345000064], [27.22102835000004, 44.48696871100003], [26.678067818000045, 44.55969739600005], [26.41606050000007, 44.52168299900006], [26.301818500000024, 44.76887499900005], [26.605551500000047, 44.85699399900005], [27.203458500000067, 44.78707399900003]]]]}}, {"type": "Feature", "properties": {"NUTS_ID": "RO316", "LEVL_CODE": 3, "CNTR_CODE": "RO", "NAME_LATN": "Prahova", "NUTS_NAME": "Prahova", "MOUNT_TYPE": 2, "URBN_TYPE": 2, "COAST_TYPE": 3, "NAME_ENGL": "Romania", "NAME_FREN": "Roumanie", "ISO3_CODE": "ROU", "SVRG_UN": "UN Member State", "CAPT": "Bucharest", "EU_STAT": "T", "EFTA_STAT": "F", "CC_STAT": "F", "NAME_GERM": "Rum\u00e4nien"}, "geometry": {"type": "MultiPolygon", "coordinates": [[[[26.605551500000047, 44.85699399900005], [26.301818500000024, 44.76887499900005], [25.970744, 44.71040849900004], [25.89485028000007, 44.801063028000044], [25.812555299000053, 44.836065602000076], [25.810689198000034, 44.88632295000008], [25.538431322000065, 45.20259528500003], [25.452539, 45.44134199900003], [26.072718500000065, 45.50578799900006], [26.25564312000006, 45.22750664800003], [26.450381416000027, 45.17427579200006], [26.605551500000047, 44.85699399900005]]]]}}, {"type": "Feature", "properties": {"NUTS_ID": "RO317", "LEVL_CODE": 3, "CNTR_CODE": "RO", "NAME_LATN": "Teleorman", "NUTS_NAME": "Teleorman", "MOUNT_TYPE": 4, "URBN_TYPE": 3, "COAST_TYPE": 3, "NAME_ENGL": "Romania", "NAME_FREN": "Roumanie", "ISO3_CODE": "ROU", "SVRG_UN": "UN Member State", "CAPT": "Bucharest", "EU_STAT": "T", "EFTA_STAT": "F", "CC_STAT": "F", "NAME_GERM": "Rum\u00e4nien"}, "geometry": {"type": "MultiPolygon", "coordinates": [[[[25.480489, 44.45199799900007], [25.487450484000078, 44.33576237400007], [25.68408845500005, 44.24808861500003], [25.602742555000077, 44.004129556000066], [25.672201, 43.68814849900008], [25.54453950000004, 43.64284549900003], [25.296372500000075, 43.65541899900006], [24.654779500000075, 43.72358649900008], [24.72102042700004, 43.79507486400007], [24.618215813000063, 43.99470104000005], [24.833320771000047, 44.09732587700006], [24.808558525000024, 44.21824181100004], [24.88401950000008, 44.38263649900006], [25.234749500000078, 44.424251999000035], [25.289145225000027, 44.42115405700008], [25.395565789000045, 44.50801192200004], [25.480489, 44.45199799900007]]]]}}, {"type": "Feature", "properties": {"NUTS_ID": "RO321", "LEVL_CODE": 3, "CNTR_CODE": "RO", "NAME_LATN": "Bucure\u015fti", "NUTS_NAME": "Bucure\u015fti", "MOUNT_TYPE": 4, "URBN_TYPE": 1, "COAST_TYPE": 3, "NAME_ENGL": "Romania", "NAME_FREN": "Roumanie", "ISO3_CODE": "ROU", "SVRG_UN": "UN Member State", "CAPT": "Bucharest", "EU_STAT": "T", "EFTA_STAT": "F", "CC_STAT": "F", "NAME_GERM": "Rum\u00e4nien"}, "geometry": {"type": "MultiPolygon", "coordinates": [[[[25.973883100000023, 44.46730650500007], [26.006127546000073, 44.516622132000066], [26.10475668600003, 44.54285476500007], [26.11548087500006, 44.48884447100005], [26.23014991200006, 44.43191509300004], [26.14068349400003, 44.35832125500008], [26.042580178000037, 44.37398807500006], [25.973883100000023, 44.46730650500007]]]]}}, {"type": "Feature", "properties": {"NUTS_ID": "RO322", "LEVL_CODE": 3, "CNTR_CODE": "RO", "NAME_LATN": "Ilfov", "NUTS_NAME": "Ilfov", "MOUNT_TYPE": 4, "URBN_TYPE": 1, "COAST_TYPE": 3, "NAME_ENGL": "Romania", "NAME_FREN": "Roumanie", "ISO3_CODE": "ROU", "SVRG_UN": "UN Member State", "CAPT": "Bucharest", "EU_STAT": "T", "EFTA_STAT": "F", "CC_STAT": "F", "NAME_GERM": "Rum\u00e4nien"}, "geometry": {"type": "MultiPolygon", "coordinates": [[[[26.41606050000007, 44.52168299900006], [26.259956500000044, 44.29498599900006], [26.115401657000064, 44.25931267200008], [25.919375871000057, 44.33829186000003], [25.89485028000007, 44.536879955000074], [25.970744, 44.71040849900004], [26.301818500000024, 44.76887499900005], [26.41606050000007, 44.52168299900006]], [[25.973883100000023, 44.46730650500007], [26.042580178000037, 44.37398807500006], [26.14068349400003, 44.35832125500008], [26.23014991200006, 44.43191509300004], [26.11548087500006, 44.48884447100005], [26.10475668600003, 44.54285476500007], [26.006127546000073, 44.516622132000066], [25.973883100000023, 44.46730650500007]]]]}}, {"type": "Feature", "properties": {"NUTS_ID": "RO411", "LEVL_CODE": 3, "CNTR_CODE": "RO", "NAME_LATN": "Dolj", "NUTS_NAME": "Dolj", "MOUNT_TYPE": 4, "URBN_TYPE": 2, "COAST_TYPE": 3, "NAME_ENGL": "Romania", "NAME_FREN": "Roumanie", "ISO3_CODE": "ROU", "SVRG_UN": "UN Member State", "CAPT": "Bucharest", "EU_STAT": "T", "EFTA_STAT": "F", "CC_STAT": "F", "NAME_GERM": "Rum\u00e4nien"}, "geometry": {"type": "MultiPolygon", "coordinates": [[[[23.928197, 44.53022549900004], [23.917465939000067, 44.42159326700005], [24.219281054000078, 44.20315308000005], [24.195882218000065, 44.02295276400008], [24.247058527000036, 43.93436604900006], [24.112043500000027, 43.69994599900008], [23.630393, 43.79104999900005], [23.409481476000053, 43.84984642200004], [22.997171, 43.807867499000054], [22.857772977000025, 43.87576777500004], [22.895159970000066, 43.97530005100003], [23.022876920000044, 44.04172940900003], [22.966369, 44.098288499000034], [23.09519689800004, 44.16751455100007], [23.26558778900005, 44.516980269000044], [23.455035500000065, 44.56956149900003], [23.679996748000065, 44.61317768600003], [23.780499500000076, 44.71398649900004], [23.928197, 44.53022549900004]]]]}}, {"type": "Feature", "properties": {"NUTS_ID": "RO412", "LEVL_CODE": 3, "CNTR_CODE": "RO", "NAME_LATN": "Gorj", "NUTS_NAME": "Gorj", "MOUNT_TYPE": 4, "URBN_TYPE": 3, "COAST_TYPE": 3, "NAME_ENGL": "Romania", "NAME_FREN": "Roumanie", "ISO3_CODE": "ROU", "SVRG_UN": "UN Member State", "CAPT": "Bucharest", "EU_STAT": "T", "EFTA_STAT": "F", "CC_STAT": "F", "NAME_GERM": "Rum\u00e4nien"}, "geometry": {"type": "MultiPolygon", "coordinates": [[[[23.780499500000076, 44.71398649900004], [23.679996748000065, 44.61317768600003], [23.455035500000065, 44.56956149900003], [23.049788369000055, 44.72067450900005], [22.894631781000044, 44.88632295000008], [22.835126744000036, 45.01358675400007], [22.656632, 45.10816699900005], [22.58337537600005, 45.16299842600006], [22.68624650000004, 45.257960999000034], [23.59064, 45.35307249900006], [23.82224012200004, 45.318521876000034], [23.841576945000043, 45.12898771600004], [23.763310704000048, 44.88632295000008], [23.780499500000076, 44.71398649900004]]]]}}, {"type": "Feature", "properties": {"NUTS_ID": "RO413", "LEVL_CODE": 3, "CNTR_CODE": "RO", "NAME_LATN": "Mehedin\u0163i", "NUTS_NAME": "Mehedin\u0163i", "MOUNT_TYPE": 4, "URBN_TYPE": 3, "COAST_TYPE": 3, "NAME_ENGL": "Romania", "NAME_FREN": "Roumanie", "ISO3_CODE": "ROU", "SVRG_UN": "UN Member State", "CAPT": "Bucharest", "EU_STAT": "T", "EFTA_STAT": "F", "CC_STAT": "F", "NAME_GERM": "Rum\u00e4nien"}, "geometry": {"type": "MultiPolygon", "coordinates": [[[[23.455035500000065, 44.56956149900003], [23.26558778900005, 44.516980269000044], [23.09519689800004, 44.16751455100007], [22.966369, 44.098288499000034], [22.67516150000006, 44.215662999000074], [22.47829175000004, 44.44860465900007], [22.61000295900004, 44.53297924900005], [22.730358522000074, 44.53509599200004], [22.704918157000066, 44.59406940300005], [22.41753228700003, 44.69349738500006], [22.14541791700003, 44.484223747000044], [22.016132500000026, 44.59920249900006], [22.14098090300007, 44.611311674000035], [22.209683634000044, 44.79931122800008], [22.404193018000058, 44.77163769400005], [22.48707807900007, 44.88632295000008], [22.512892042000033, 44.98437643800003], [22.656632, 45.10816699900005], [22.835126744000036, 45.01358675400007], [22.894631781000044, 44.88632295000008], [23.049788369000055, 44.72067450900005], [23.455035500000065, 44.56956149900003]]]]}}, {"type": "Feature", "properties": {"NUTS_ID": "RO414", "LEVL_CODE": 3, "CNTR_CODE": "RO", "NAME_LATN": "Olt", "NUTS_NAME": "Olt", "MOUNT_TYPE": 4, "URBN_TYPE": 3, "COAST_TYPE": 3, "NAME_ENGL": "Romania", "NAME_FREN": "Roumanie", "ISO3_CODE": "ROU", "SVRG_UN": "UN Member State", "CAPT": "Bucharest", "EU_STAT": "T", "EFTA_STAT": "F", "CC_STAT": "F", "NAME_GERM": "Rum\u00e4nien"}, "geometry": {"type": "MultiPolygon", "coordinates": [[[[24.438121, 44.845375499000056], [24.53711545400006, 44.84520676000005], [24.678971854000054, 44.72216264200006], [24.764122446000044, 44.41308950400003], [24.88401950000008, 44.38263649900006], [24.808558525000024, 44.21824181100004], [24.833320771000047, 44.09732587700006], [24.618215813000063, 43.99470104000005], [24.72102042700004, 43.79507486400007], [24.654779500000075, 43.72358649900008], [24.480323200000043, 43.75146362000004], [24.323522500000024, 43.69768599900004], [24.112043500000027, 43.69994599900008], [24.247058527000036, 43.93436604900006], [24.195882218000065, 44.02295276400008], [24.219281054000078, 44.20315308000005], [23.917465939000067, 44.42159326700005], [23.928197, 44.53022549900004], [24.274295447000043, 44.567903], [24.348772331000077, 44.83076392600003], [24.39287090700003, 44.87831425300004], [24.438121, 44.845375499000056]]]]}}, {"type": "Feature", "properties": {"NUTS_ID": "RO415", "LEVL_CODE": 3, "CNTR_CODE": "RO", "NAME_LATN": "V\u00e2lcea", "NUTS_NAME": "V\u00e2lcea", "MOUNT_TYPE": 2, "URBN_TYPE": 3, "COAST_TYPE": 3, "NAME_ENGL": "Romania", "NAME_FREN": "Roumanie", "ISO3_CODE": "ROU", "SVRG_UN": "UN Member State", "CAPT": "Bucharest", "EU_STAT": "T", "EFTA_STAT": "F", "CC_STAT": "F", "NAME_GERM": "Rum\u00e4nien"}, "geometry": {"type": "MultiPolygon", "coordinates": [[[[24.438121, 44.845375499000056], [24.39287090700003, 44.87831425300004], [24.348772331000077, 44.83076392600003], [24.274295447000043, 44.567903], [23.928197, 44.53022549900004], [23.780499500000076, 44.71398649900004], [23.763310704000048, 44.88632295000008], [23.841576945000043, 45.12898771600004], [23.82224012200004, 45.318521876000034], [23.59064, 45.35307249900006], [23.597270500000036, 45.47347149900003], [23.703613, 45.49677199900003], [24.523132, 45.58056399900005], [24.471694369000033, 44.88632295000008], [24.438121, 44.845375499000056]]]]}}, {"type": "Feature", "properties": {"NUTS_ID": "RO421", "LEVL_CODE": 3, "CNTR_CODE": "RO", "NAME_LATN": "Arad", "NUTS_NAME": "Arad", "MOUNT_TYPE": 4, "URBN_TYPE": 2, "COAST_TYPE": 3, "NAME_ENGL": "Romania", "NAME_FREN": "Roumanie", "ISO3_CODE": "ROU", "SVRG_UN": "UN Member State", "CAPT": "Bucharest", "EU_STAT": "T", "EFTA_STAT": "F", "CC_STAT": "F", "NAME_GERM": "Rum\u00e4nien"}, "geometry": {"type": "MultiPolygon", "coordinates": [[[[22.05608989700005, 46.63998312700005], [22.429523863000043, 46.400250877000076], [22.67657550000007, 46.40582549900006], [22.748716, 46.351207499000054], [22.62461430700006, 46.23314560100005], [22.463163587000054, 46.202240163000056], [22.42269443500004, 46.02329530600008], [22.352794500000073, 45.972686499000076], [22.232647498000063, 45.914007678000075], [21.973458831000073, 45.981973141000026], [21.67205232500004, 45.93110387100006], [21.498533468000062, 46.04946778100003], [21.132833515000073, 45.98983881400005], [20.70530350000007, 46.160937499000056], [20.7756, 46.27590999900008], [21.036237819000064, 46.251000144000045], [21.16051967800007, 46.31083094500008], [21.29705473200005, 46.43146230900004], [21.315651528000046, 46.59908536900008], [21.441398, 46.651466999000036], [22.05608989700005, 46.63998312700005]]]]}}, {"type": "Feature", "properties": {"NUTS_ID": "RO422", "LEVL_CODE": 3, "CNTR_CODE": "RO", "NAME_LATN": "Cara\u015f-Severin", "NUTS_NAME": "Cara\u015f-Severin", "MOUNT_TYPE": 2, "URBN_TYPE": 3, "COAST_TYPE": 3, "NAME_ENGL": "Romania", "NAME_FREN": "Roumanie", "ISO3_CODE": "ROU", "SVRG_UN": "UN Member State", "CAPT": "Bucharest", "EU_STAT": "T", "EFTA_STAT": "F", "CC_STAT": "F", "NAME_GERM": "Rum\u00e4nien"}, "geometry": {"type": "MultiPolygon", "coordinates": [[[[22.68624650000004, 45.257960999000034], [22.58337537600005, 45.16299842600006], [22.656632, 45.10816699900005], [22.512892042000033, 44.98437643800003], [22.48707807900007, 44.88632295000008], [22.404193018000058, 44.77163769400005], [22.209683634000044, 44.79931122800008], [22.14098090300007, 44.611311674000035], [22.016132500000026, 44.59920249900006], [22.012350500000025, 44.602318499000035], [21.654559386000074, 44.668561616000034], [21.572770384000023, 44.75158652600004], [21.35847, 44.82161199900003], [21.54713909700007, 44.88632295000008], [21.40621421000003, 45.00124733300004], [21.503736464000042, 45.12989592800005], [21.479178500000046, 45.19302749900004], [21.53914533300008, 45.282745592000026], [21.47953981200004, 45.46400411900004], [21.615095530000076, 45.566064581000035], [22.00160653000006, 45.50592141200008], [22.426479, 45.66888399900006], [22.67569447900007, 45.50271070600007], [22.68624650000004, 45.257960999000034]]]]}}, {"type": "Feature", "properties": {"NUTS_ID": "RO423", "LEVL_CODE": 3, "CNTR_CODE": "RO", "NAME_LATN": "Hunedoara", "NUTS_NAME": "Hunedoara", "MOUNT_TYPE": 3, "URBN_TYPE": 2, "COAST_TYPE": 3, "NAME_ENGL": "Romania", "NAME_FREN": "Roumanie", "ISO3_CODE": "ROU", "SVRG_UN": "UN Member State", "CAPT": "Bucharest", "EU_STAT": "T", "EFTA_STAT": "F", "CC_STAT": "F", "NAME_GERM": "Rum\u00e4nien"}, "geometry": {"type": "MultiPolygon", "coordinates": [[[[23.597270500000036, 45.47347149900003], [23.59064, 45.35307249900006], [22.68624650000004, 45.257960999000034], [22.67569447900007, 45.50271070600007], [22.426479, 45.66888399900006], [22.515607878000026, 45.77178071800006], [22.352794500000073, 45.972686499000076], [22.42269443500004, 46.02329530600008], [22.463163587000054, 46.202240163000056], [22.62461430700006, 46.23314560100005], [22.748716, 46.351207499000054], [22.912073251000038, 46.32033878400006], [23.064502599000036, 46.19301118100003], [23.100674754000067, 46.065285895000045], [23.243094403000043, 45.99716974100005], [23.434890628000062, 45.60477644500003], [23.597270500000036, 45.47347149900003]]]]}}, {"type": "Feature", "properties": {"NUTS_ID": "RO424", "LEVL_CODE": 3, "CNTR_CODE": "RO", "NAME_LATN": "Timi\u015f", "NUTS_NAME": "Timi\u015f", "MOUNT_TYPE": 4, "URBN_TYPE": 2, "COAST_TYPE": 3, "NAME_ENGL": "Romania", "NAME_FREN": "Roumanie", "ISO3_CODE": "ROU", "SVRG_UN": "UN Member State", "CAPT": "Bucharest", "EU_STAT": "T", "EFTA_STAT": "F", "CC_STAT": "F", "NAME_GERM": "Rum\u00e4nien"}, "geometry": {"type": "MultiPolygon", "coordinates": [[[[22.352794500000073, 45.972686499000076], [22.515607878000026, 45.77178071800006], [22.426479, 45.66888399900006], [22.00160653000006, 45.50592141200008], [21.615095530000076, 45.566064581000035], [21.47953981200004, 45.46400411900004], [21.53914533300008, 45.282745592000026], [21.479178500000046, 45.19302749900004], [21.016575, 45.32462749900003], [20.818005436000078, 45.49155315300004], [20.810317712000028, 45.753630145000045], [20.662833, 45.79411599900004], [20.264296, 46.12637349900007], [20.70530350000007, 46.160937499000056], [21.132833515000073, 45.98983881400005], [21.498533468000062, 46.04946778100003], [21.67205232500004, 45.93110387100006], [21.973458831000073, 45.981973141000026], [22.232647498000063, 45.914007678000075], [22.352794500000073, 45.972686499000076]]]]}}, {"type": "Feature", "properties": {"NUTS_ID": "RO111", "LEVL_CODE": 3, "CNTR_CODE": "RO", "NAME_LATN": "Bihor", "NUTS_NAME": "Bihor", "MOUNT_TYPE": 4, "URBN_TYPE": 3, "COAST_TYPE": 3, "NAME_ENGL": "Romania", "NAME_FREN": "Roumanie", "ISO3_CODE": "ROU", "SVRG_UN": "UN Member State", "CAPT": "Bucharest", "EU_STAT": "T", "EFTA_STAT": "F", "CC_STAT": "F", "NAME_GERM": "Rum\u00e4nien"}, "geometry": {"type": "MultiPolygon", "coordinates": [[[[22.61267950000007, 47.334741499000074], [22.516578088000074, 47.17688478000008], [22.72817850000007, 47.00749099900003], [22.696229611000035, 46.95035020100005], [22.756100392000064, 46.88834610300006], [22.707889089000048, 46.780309620000025], [22.811950500000023, 46.56885949900004], [22.689849007000078, 46.51272268500003], [22.67657550000007, 46.40582549900006], [22.429523863000043, 46.400250877000076], [22.05608989700005, 46.63998312700005], [21.441398, 46.651466999000036], [21.658955, 47.02213149900007], [22.01472075600003, 47.39794173300004], [22.041073100000062, 47.52208987300003], [22.12832, 47.598089499000025], [22.180837500000052, 47.60009449900008], [22.368848925000066, 47.44204799400006], [22.61267950000007, 47.334741499000074]]]]}}, {"type": "Feature", "properties": {"NUTS_ID": "RO112", "LEVL_CODE": 3, "CNTR_CODE": "RO", "NAME_LATN": "Bistri\u0163a-N\u0103s\u0103ud", "NUTS_NAME": "Bistri\u0163a-N\u0103s\u0103ud", "MOUNT_TYPE": 3, "URBN_TYPE": 3, "COAST_TYPE": 3, "NAME_ENGL": "Romania", "NAME_FREN": "Roumanie", "ISO3_CODE": "ROU", "SVRG_UN": "UN Member State", "CAPT": "Bucharest", "EU_STAT": "T", "EFTA_STAT": "F", "CC_STAT": "F", "NAME_GERM": "Rum\u00e4nien"}, "geometry": {"type": "MultiPolygon", "coordinates": [[[[24.960837500000025, 47.596850999000026], [25.075296552000054, 47.51239990400006], [25.063383, 47.13653849900004], [24.860746979000055, 47.08754303900008], [24.709029608000037, 46.92625561700004], [24.571143106000022, 46.921035747000076], [24.40102433800007, 46.76217447500005], [24.179575500000055, 46.804696499000045], [24.209786480000048, 46.90028245800005], [24.117918330000066, 46.98613744700003], [24.12152506700005, 47.099880219000056], [23.947464405000062, 47.216258237000034], [24.022714500000063, 47.36194799900005], [24.368460308000067, 47.597588432000066], [24.960837500000025, 47.596850999000026]]]]}}, {"type": "Feature", "properties": {"NUTS_ID": "RO113", "LEVL_CODE": 3, "CNTR_CODE": "RO", "NAME_LATN": "Cluj", "NUTS_NAME": "Cluj", "MOUNT_TYPE": 3, "URBN_TYPE": 2, "COAST_TYPE": 3, "NAME_ENGL": "Romania", "NAME_FREN": "Roumanie", "ISO3_CODE": "ROU", "SVRG_UN": "UN Member State", "CAPT": "Bucharest", "EU_STAT": "T", "EFTA_STAT": "F", "CC_STAT": "F", "NAME_GERM": "Rum\u00e4nien"}, "geometry": {"type": "MultiPolygon", "coordinates": [[[[24.179575500000055, 46.804696499000045], [24.089070563000064, 46.737823330000026], [23.985275, 46.43091799900003], [23.623410153000066, 46.43273092600003], [23.388519969000072, 46.530138297000065], [23.062094456000068, 46.481750470000065], [22.811950500000023, 46.56885949900004], [22.707889089000048, 46.780309620000025], [22.756100392000064, 46.88834610300006], [22.696229611000035, 46.95035020100005], [22.72817850000007, 47.00749099900003], [23.090916134000054, 46.86476846700003], [23.32282155100006, 46.91299741000006], [23.459883210000044, 47.02752668800008], [23.505625262000024, 47.142973220000044], [23.841384, 47.34000749900008], [24.022714500000063, 47.36194799900005], [23.947464405000062, 47.216258237000034], [24.12152506700005, 47.099880219000056], [24.117918330000066, 46.98613744700003], [24.209786480000048, 46.90028245800005], [24.179575500000055, 46.804696499000045]]]]}}, {"type": "Feature", "properties": {"NUTS_ID": "RO114", "LEVL_CODE": 3, "CNTR_CODE": "RO", "NAME_LATN": "Maramure\u015f", "NUTS_NAME": "Maramure\u015f", "MOUNT_TYPE": 3, "URBN_TYPE": 3, "COAST_TYPE": 3, "NAME_ENGL": "Romania", "NAME_FREN": "Roumanie", "ISO3_CODE": "ROU", "SVRG_UN": "UN Member State", "CAPT": "Bucharest", "EU_STAT": "T", "EFTA_STAT": "F", "CC_STAT": "F", "NAME_GERM": "Rum\u00e4nien"}, "geometry": {"type": "MultiPolygon", "coordinates": [[[[24.947100500000033, 47.72912399900008], [25.02210869000004, 47.66731240200005], [24.960837500000025, 47.596850999000026], [24.368460308000067, 47.597588432000066], [24.022714500000063, 47.36194799900005], [23.841384, 47.34000749900008], [23.106107, 47.44235799900008], [22.987149260000024, 47.47598811100005], [23.11411062800005, 47.59826895900005], [23.232360517000075, 47.57244760800006], [23.353306345000078, 47.66731240200005], [23.269258103000027, 47.778104443000075], [23.466106586000024, 47.77213121200003], [23.613511463000066, 47.85318504500003], [23.493605, 47.96781149900005], [23.569540919000076, 48.00715265900004], [24.215330666000057, 47.90290394900006], [24.56784286900006, 47.955976451000026], [24.947100500000033, 47.72912399900008]]]]}}, {"type": "Feature", "properties": {"NUTS_ID": "RO115", "LEVL_CODE": 3, "CNTR_CODE": "RO", "NAME_LATN": "Satu Mare", "NUTS_NAME": "Satu Mare", "MOUNT_TYPE": 4, "URBN_TYPE": 3, "COAST_TYPE": 3, "NAME_ENGL": "Romania", "NAME_FREN": "Roumanie", "ISO3_CODE": "ROU", "SVRG_UN": "UN Member State", "CAPT": "Bucharest", "EU_STAT": "T", "EFTA_STAT": "F", "CC_STAT": "F", "NAME_GERM": "Rum\u00e4nien"}, "geometry": {"type": "MultiPolygon", "coordinates": [[[[23.493605, 47.96781149900005], [23.613511463000066, 47.85318504500003], [23.466106586000024, 47.77213121200003], [23.269258103000027, 47.778104443000075], [23.353306345000078, 47.66731240200005], [23.232360517000075, 47.57244760800006], [23.11411062800005, 47.59826895900005], [22.987149260000024, 47.47598811100005], [23.106107, 47.44235799900008], [23.046406053000055, 47.357933149000075], [22.79859719800004, 47.41562078900006], [22.61267950000007, 47.334741499000074], [22.368848925000066, 47.44204799400006], [22.180837500000052, 47.60009449900008], [22.22183771500005, 47.66731240200005], [22.466854351000052, 47.78862331000005], [22.667929489000073, 47.79513943100005], [22.89627050000007, 47.954120499000055], [23.193141342000047, 48.10954608700007], [23.493605, 47.96781149900005]]]]}}, {"type": "Feature", "properties": {"NUTS_ID": "RO116", "LEVL_CODE": 3, "CNTR_CODE": "RO", "NAME_LATN": "S\u0103laj", "NUTS_NAME": "S\u0103laj", "MOUNT_TYPE": 4, "URBN_TYPE": 3, "COAST_TYPE": 3, "NAME_ENGL": "Romania", "NAME_FREN": "Roumanie", "ISO3_CODE": "ROU", "SVRG_UN": "UN Member State", "CAPT": "Bucharest", "EU_STAT": "T", "EFTA_STAT": "F", "CC_STAT": "F", "NAME_GERM": "Rum\u00e4nien"}, "geometry": {"type": "MultiPolygon", "coordinates": [[[[23.841384, 47.34000749900008], [23.505625262000024, 47.142973220000044], [23.459883210000044, 47.02752668800008], [23.32282155100006, 46.91299741000006], [23.090916134000054, 46.86476846700003], [22.72817850000007, 47.00749099900003], [22.516578088000074, 47.17688478000008], [22.61267950000007, 47.334741499000074], [22.79859719800004, 47.41562078900006], [23.046406053000055, 47.357933149000075], [23.106107, 47.44235799900008], [23.841384, 47.34000749900008]]]]}}, {"type": "Feature", "properties": {"NUTS_ID": "RO121", "LEVL_CODE": 3, "CNTR_CODE": "RO", "NAME_LATN": "Alba", "NUTS_NAME": "Alba", "MOUNT_TYPE": 2, "URBN_TYPE": 3, "COAST_TYPE": 3, "NAME_ENGL": "Romania", "NAME_FREN": "Roumanie", "ISO3_CODE": "ROU", "SVRG_UN": "UN Member State", "CAPT": "Bucharest", "EU_STAT": "T", "EFTA_STAT": "F", "CC_STAT": "F", "NAME_GERM": "Rum\u00e4nien"}, "geometry": {"type": "MultiPolygon", "coordinates": [[[[23.985275, 46.43091799900003], [24.23131150000006, 46.25963999900006], [24.176445519000026, 46.16136711400003], [23.884842408000054, 46.02115342800005], [23.641780564000044, 45.787672358000066], [23.630834623000055, 45.55285864200005], [23.703613, 45.49677199900003], [23.597270500000036, 45.47347149900003], [23.434890628000062, 45.60477644500003], [23.243094403000043, 45.99716974100005], [23.100674754000067, 46.065285895000045], [23.064502599000036, 46.19301118100003], [22.912073251000038, 46.32033878400006], [22.748716, 46.351207499000054], [22.67657550000007, 46.40582549900006], [22.689849007000078, 46.51272268500003], [22.811950500000023, 46.56885949900004], [23.062094456000068, 46.481750470000065], [23.388519969000072, 46.530138297000065], [23.623410153000066, 46.43273092600003], [23.985275, 46.43091799900003]]]]}}]}